     2.100          NAVIGATION                              RINEX VERSION / TYPE
fic2rin                                 08/22/2014 00:25:18 PGM / RUN BY / DATE
                                                            END OF HEADER
26 14  8 21 10  0  0.0 -.272612087429D-04 -.130739863380D-10  .000000000000D+00
     .920000000000D+02  .148750000000D+02  .416410202299D-08 -.229422146506D+01
     .603497028351D-06  .212174933404D-01  .892207026482D-05  .515368787193D+04
     .381600000000D+06  .299885869026D-06 -.101195725956D+01  .167638063431D-07
     .973874375697D+00  .207625000000D+03  .129162007279D+01 -.741780898152D-08
    -.173578658819D-09  .100000000000D+01  .180600000000D+04  .000000000000D+00
     .340000000000D+01  .000000000000D+00 -.605359673500D-08  .920000000000D+02
     .374406000000D+06  .400000000000D+01
27 14  8 21 10  0  0.0  .789342448115D-05  .318323145621D-11  .000000000000D+00
     .900000000000D+01 -.104937500000D+03  .427982112887D-08 -.116999457780D+01
    -.539794564247D-05  .146521173883D-02  .714138150215D-05  .515368244743D+04
     .381600000000D+06  .521540641785D-07  .202805077954D+01 -.782310962677D-07
     .964209250454D+00  .246687500000D+03  .332166069742D+00 -.800783355841D-08
    -.303941231801D-09  .100000000000D+01  .180600000000D+04  .000000000000D+00
     .240000000000D+01  .000000000000D+00  .186264514923D-08  .900000000000D+01
     .374406000000D+06  .400000000000D+01
28 14  8 21 10  0  0.0  .378698576242D-03  .261479726760D-11  .000000000000D+00
     .700000000000D+01  .865625000000D+01  .431267964042D-08 -.212365076441D+00
     .542029738426D-06  .192339633359D-01  .306591391563D-05  .515367708588D+04
     .381600000000D+06 -.178813934326D-06  .104867960619D+01  .670552253723D-07
     .987140962406D+00  .336000000000D+03 -.170950612583D+01 -.852964100807D-08
    -.378587198248D-10  .100000000000D+01  .180600000000D+04  .000000000000D+00
     .240000000000D+01  .000000000000D+00 -.107102096081D-07  .700000000000D+01
     .374406000000D+06  .400000000000D+01
29 14  8 21 10  0  0.0  .555096659809D-03  .261479726760D-11  .000000000000D+00
     .940000000000D+02 -.101062500000D+03  .420160358508D-08  .161312492515D+01
    -.526569783688D-05  .124494871125D-02  .792369246483D-05  .515365811157D+04
     .381600000000D+06  .428408384323D-07  .208327121766D+01  .447034835815D-07
     .970219135899D+00  .229656250000D+03 -.777422908956D+00 -.792783022595D-08
    -.250010413937D-09  .100000000000D+01  .180600000000D+04  .000000000000D+00
     .240000000000D+01  .000000000000D+00 -.977888703346D-08  .940000000000D+02
     .374406000000D+06  .400000000000D+01
31 14  8 21 10  0  0.0  .332522206008D-03 -.341060513165D-12  .000000000000D+00
     .920000000000D+02  .945625000000D+02  .410945688966D-08  .242531284024D+01
     .507757067680D-05  .798901834060D-02  .891648232937D-05  .515361372185D+04
     .381600000000D+06  .149011611938D-06 -.329554598586D-01  .141561031342D-06
     .978031630463D+00  .214156250000D+03 -.634668747084D+00 -.781139680460D-08
     .842892252703D-10  .100000000000D+01  .180600000000D+04  .000000000000D+00
     .340000000000D+01  .000000000000D+00 -.130385160446D-07  .920000000000D+02
     .374406000000D+06  .400000000000D+01
32 14  8 21 10  0  0.0 -.358062330633D-03  .852651282912D-11  .000000000000D+00
     .900000000000D+02  .846875000000D+01  .500592280249D-08  .298781046372D+01
     .508502125740D-06  .114013381535D-01  .545196235180D-05  .515366566277D+04
     .381600000000D+06 -.163912773132D-06 -.207411204556D+01  .353902578354D-07
     .947301579142D+00  .266062500000D+03 -.110153630809D+00 -.816319717279D-08
     .139291516336D-09  .100000000000D+01  .180600000000D+04  .000000000000D+00
     .240000000000D+01  .000000000000D+00 -.325962901115D-08  .900000000000D+02
     .374406000000D+06  .400000000000D+01
31 14  8 21  9 59 44.0  .332523137331D-03 -.341060513165D-12  .000000000000D+00
     .700000000000D+01  .945625000000D+02  .410945688966D-08  .242297925623D+01
     .507757067680D-05  .798902078532D-02  .891648232937D-05  .515361372185D+04
     .381584000000D+06  .149011611938D-06 -.329553121039D-01  .141561031342D-06
     .978031634852D+00  .214156250000D+03 -.634669011872D+00 -.781139680460D-08
     .842892252703D-10  .100000000000D+01  .180600000000D+04  .000000000000D+00
     .240000000000D+01  .000000000000D+00 -.130385160446D-07  .700000000000D+01
     .375006000000D+06  .400000000000D+01
15 14  8 21  9 59 44.0 -.198158435524D-03 -.227373675443D-11  .000000000000D+00
     .800000000000D+01 -.459375000000D+01  .516378652101D-08 -.175688314622D+01
    -.569969415665D-06  .643105164636D-02  .847689807415D-05  .515374489975D+04
     .381584000000D+06  .633299350739D-07 -.115024772775D+01 -.987201929092D-07
     .935548389963D+00  .201500000000D+03  .275372446093D+00 -.822105672573D-08
    -.262510934634D-09  .100000000000D+01  .180600000000D+04  .000000000000D+00
     .240000000000D+01  .000000000000D+00 -.102445483208D-07  .800000000000D+01
     .375696000000D+06  .400000000000D+01
16 14  8 21  9 59 44.0 -.200065784156D-03  .238742359215D-11  .000000000000D+00
     .400000000000D+01  .959375000000D+01  .422481883781D-08 -.103273246202D+00
     .422820448875D-06  .765750161372D-02  .250339508057D-05  .515364353561D+04
     .381584000000D+06  .689178705215D-07  .104299521417D+01  .875443220139D-07
     .988599159649D+00  .343875000000D+03  .238693976757D+00 -.824391482071D-08
    -.871464871438D-10  .100000000000D+01  .180600000000D+04  .000000000000D+00
     .240000000000D+01  .000000000000D+00 -.102445483208D-07  .400000000000D+01
     .378516000000D+06  .400000000000D+01
18 14  8 21  9 59 44.0  .339503400028D-03  .250111042988D-11  .000000000000D+00
     .900000000000D+01  .990625000000D+01  .569166565215D-08  .516324409110D+00
     .471249222755D-06  .155046441359D-01  .561028718948D-05  .515371235466D+04
     .381584000000D+06 -.283122062683D-06 -.217011771224D+01  .651925802231D-07
     .925458247519D+00  .254406250000D+03 -.201488793274D+01 -.880786688301D-08
     .392873507616D-10  .100000000000D+01  .180600000000D+04  .000000000000D+00
     .240000000000D+01  .000000000000D+00 -.107102096081D-07  .900000000000D+01
     .378726000000D+06  .400000000000D+01
15 14  8 21 11 59 44.0 -.198174268007D-03 -.227373675443D-11  .000000000000D+00
     .900000000000D+01 -.115937500000D+02  .510056960205D-08 -.706658018274D+00
    -.564381480217D-06  .643168215174D-02  .813975930214D-05  .515374625015D+04
     .388784000000D+06  .162050127983D-06 -.115030664092D+01  .745058059692D-08
     .935546044905D+00  .205562500000D+03  .275288895916D+00 -.831070331701D-08
    -.333585323739D-09  .100000000000D+01  .180600000000D+04  .000000000000D+00
     .240000000000D+01  .000000000000D+00 -.102445483208D-07  .900000000000D+01
     .381606000000D+06  .400000000000D+01
16 14  8 21 11 59 44.0 -.200048554689D-03  .238742359215D-11  .000000000000D+00
     .190000000000D+02  .703125000000D+01  .429875048878D-08  .946949353819D+00
     .556930899620D-06  .765720708296D-02  .243075191975D-05  .515364287186D+04
     .388784000000D+06  .223517417908D-07  .104293591479D+01  .912696123123D-07
     .988598514502D+00  .344062500000D+03  .238668985727D+00 -.823712882376D-08
    -.103932900651D-09  .100000000000D+01  .180600000000D+04  .000000000000D+00
     .240000000000D+01  .000000000000D+00 -.102445483208D-07  .190000000000D+02
     .381606000000D+06  .400000000000D+01
18 14  8 21 11 59 44.0  .339521560818D-03  .250111042988D-11  .000000000000D+00
     .100000000000D+02  .606250000000D+01  .561059084649D-08  .156645625993D+01
     .165775418282D-06  .155049498426D-01  .564381480217D-05  .515371350670D+04
     .388784000000D+06 -.331550836563D-06 -.217018146328D+01 -.214204192162D-06
     .925458957035D+00  .252968750000D+03 -.201485427685D+01 -.866464663160D-08
     .982183769039D-10  .100000000000D+01  .180600000000D+04  .000000000000D+00
     .240000000000D+01  .000000000000D+00 -.107102096081D-07  .100000000000D+02
     .381606000000D+06  .400000000000D+01
31 14  8 21 11 59 44.0  .332520809025D-03 -.341060513165D-12  .000000000000D+00
     .310000000000D+02  .101343750000D+03  .409231331842D-08 -.280992401111D+01
     .537000596523D-05  .798992346972D-02  .871531665325D-05  .515361188507D+04
     .388784000000D+06 -.558793544769D-07 -.330118538876D-01  .912696123123D-07
     .978033151898D+00  .220000000000D+03 -.634735027513D+00 -.770389232661D-08
     .210365905441D-09  .100000000000D+01  .180600000000D+04  .000000000000D+00
     .240000000000D+01  .000000000000D+00 -.130385160446D-07  .310000000000D+02
     .381606000000D+06  .400000000000D+01
 1 14  8 21 12  0  0.0  .199787318707D-04  .568434188608D-12  .000000000000D+00
     .790000000000D+02 -.204687500000D+02  .423803367397D-08 -.218742051772D+01
    -.976026058197D-06  .342228112277D-02  .102240592241D-04  .515367844391D+04
     .388800000000D+06 -.130385160446D-07  .308340130534D+01 -.558793544769D-08
     .961636394484D+00  .183500000000D+03  .380485184507D+00 -.775639451354D-08
     .363943731146D-09  .100000000000D+01  .180600000000D+04  .000000000000D+00
     .240000000000D+01  .000000000000D+00  .558793544769D-08  .790000000000D+02
     .381606000000D+06  .400000000000D+01
 2 14  8 21 12  0  0.0  .513835344464D-03  .216004991671D-11  .000000000000D+00
     .800000000000D+02 -.615625000000D+01  .477305595980D-08 -.150201643016D+01
    -.374391674995D-06  .136921204394D-01  .986456871033D-05  .515366318512D+04
     .388800000000D+06  .320374965668D-06  .305193168749D+01 -.175088644028D-06
     .940187339765D+00  .179656250000D+03 -.239567860088D+01 -.794961684774D-08
     .308584282345D-09  .100000000000D+01  .180600000000D+04  .000000000000D+00
     .240000000000D+01  .000000000000D+00 -.200234353542D-07  .800000000000D+02
     .381606000000D+06  .400000000000D+01
